{
  "type": "FeatureCollection",
  "features": [
    {
      "type": "Feature",
      "properties": {
        "norad_id": 58701,
        "name": "TIANMU-1 16",
        "group": "weather",
        "lat": -47.60468930010309,
        "lon": -23.51722890303513,
        "alt_km": 499.07362441324767,
        "timestamp": "2025-12-09T20:37:08.926769+00:00",
        "meta_object_name": "TIANMU-1 16",
        "meta_object_id": "2024-004B",
        "meta_epoch": "2025-12-09T14:53:41.916192",
        "meta_mean_motion": 15.24366749,
        "meta_eccentricity": 0.00046366,
        "meta_inclination": 97.4569,
        "meta_ra_of_asc_node": 164.4938,
        "meta_arg_of_pericenter": 310.3269,
        "meta_mean_anomaly": 49.7563,
        "meta_ephemeris_type": 0,
        "meta_classification_type": "U",
        "meta_norad_cat_id": 58701,
        "meta_element_set_no": 999,
        "meta_rev_at_epoch": 10687,
        "meta_bstar": 0.00040450755,
        "meta_mean_motion_dot": 9.84e-05,
        "meta_mean_motion_ddot": 0,
        "tle_line1": "1 58701U 24004B   25343.62062403  .00009840  00000+0  40451-3 0  9998",
        "tle_line2": "2 58701  97.4569 164.4938 0004636 310.3269  49.7563 15.24366749106874"
      },
      "geometry": {
        "type": "Point",
        "coordinates": [
          -23.51722890303513,
          -47.60468930010309
        ]
      }
    },
    {
      "type": "Feature",
      "properties": {
        "norad_id": 58702,
        "name": "TIANMU-1 17",
        "group": "weather",
        "lat": -47.41546325328496,
        "lon": 173.33713735672558,
        "alt_km": 496.7608395612406,
        "timestamp": "2025-12-09T20:37:08.926779+00:00",
        "meta_object_name": "TIANMU-1 17",
        "meta_object_id": "2024-004C",
        "meta_epoch": "2025-12-09T14:31:38.828064",
        "meta_mean_motion": 15.24411087,
        "meta_eccentricity": 0.00038539,
        "meta_inclination": 97.4604,
        "meta_ra_of_asc_node": 164.8871,
        "meta_arg_of_pericenter": 314.0561,
        "meta_mean_anomaly": 46.0359,
        "meta_ephemeris_type": 0,
        "meta_classification_type": "U",
        "meta_norad_cat_id": 58702,
        "meta_element_set_no": 999,
        "meta_rev_at_epoch": 10686,
        "meta_bstar": 0.00042406657,
        "meta_mean_motion_dot": 0.00010333,
        "meta_mean_motion_ddot": 0,
        "tle_line1": "1 58702U 24004C   25343.60531051  .00010333  00000+0  42407-3 0  9999",
        "tle_line2": "2 58702  97.4604 164.8871 0003853 314.0561  46.0359 15.24411087106869"
      },
      "geometry": {
        "type": "Point",
        "coordinates": [
          173.33713735672558,
          -47.41546325328496
        ]
      }
    },
    {
      "type": "Feature",
      "properties": {
        "norad_id": 58703,
        "name": "TIANMU-1 18",
        "group": "weather",
        "lat": 43.26966821375355,
        "lon": 158.24693965684318,
        "alt_km": 489.0179662681612,
        "timestamp": "2025-12-09T20:37:08.926790+00:00",
        "meta_object_name": "TIANMU-1 18",
        "meta_object_id": "2024-004D",
        "meta_epoch": "2025-12-09T15:42:06.501888",
        "meta_mean_motion": 15.24400968,
        "meta_eccentricity": 0.00032069,
        "meta_inclination": 97.4621,
        "meta_ra_of_asc_node": 165.1304,
        "meta_arg_of_pericenter": 314.9958,
        "meta_mean_anomaly": 45.1019,
        "meta_ephemeris_type": 0,
        "meta_classification_type": "U",
        "meta_norad_cat_id": 58703,
        "meta_element_set_no": 999,
        "meta_rev_at_epoch": 10687,
        "meta_bstar": 0.00041993027,
        "meta_mean_motion_dot": 0.00010228,
        "meta_mean_motion_ddot": 0,
        "tle_line1": "1 58703U 24004D   25343.65424192  .00010228  00000+0  41993-3 0  9994",
        "tle_line2": "2 58703  97.4621 165.1304 0003206 314.9958  45.1019 15.24400968106875"
      },
      "geometry": {
        "type": "Point",
        "coordinates": [
          158.24693965684318,
          43.26966821375355
        ]
      }
    },
    {
      "type": "Feature",
      "properties": {
        "norad_id": 58990,
        "name": "INSAT-3DS",
        "group": "weather",
        "lat": 0.015540751558619132,
        "lon": 110.19576388828118,
        "alt_km": 35792.95867407361,
        "timestamp": "2025-12-09T20:37:08.926802+00:00",
        "meta_object_name": "INSAT-3DS",
        "meta_object_id": "2024-033A",
        "meta_epoch": "2025-12-09T13:57:50.434272",
        "meta_mean_motion": 1.00269596,
        "meta_eccentricity": 0.00016344,
        "meta_inclination": 0.0218,
        "meta_ra_of_asc_node": 91.6354,
        "meta_arg_of_pericenter": 173.2346,
        "meta_mean_anomaly": 105.2388,
        "meta_ephemeris_type": 0,
        "meta_classification_type": "U",
        "meta_norad_cat_id": 58990,
        "meta_element_set_no": 999,
        "meta_rev_at_epoch": 4516,
        "meta_bstar": 0,
        "meta_mean_motion_dot": -1.53e-06,
        "meta_mean_motion_ddot": 0,
        "tle_line1": "1 58990U 24033A   25343.58183373 -.00000153  00000+0  00000+0 0  9996",
        "tle_line2": "2 58990   0.0218  91.6354 0001634 173.2346 105.2388  1.00269596 45163"
      },
      "geometry": {
        "type": "Point",
        "coordinates": [
          110.19576388828118,
          0.015540751558619132
        ]
      }
    },
    {
      "type": "Feature",
      "properties": {
        "norad_id": 59051,
        "name": "METEOR-M2 4",
        "group": "weather",
        "lat": -14.777879005048225,
        "lon": 118.5047085426458,
        "alt_km": 827.016413516054,
        "timestamp": "2025-12-09T20:37:08.926813+00:00",
        "meta_object_name": "METEOR-M2 4",
        "meta_object_id": "2024-039A",
        "meta_epoch": "2025-12-09T14:38:28.567104",
        "meta_mean_motion": 14.22400554,
        "meta_eccentricity": 0.00072172,
        "meta_inclination": 98.6762,
        "meta_ra_of_asc_node": 300.5681,
        "meta_arg_of_pericenter": 7.4813,
        "meta_mean_anomaly": 352.6472,
        "meta_ephemeris_type": 0,
        "meta_classification_type": "U",
        "meta_norad_cat_id": 59051,
        "meta_element_set_no": 999,
        "meta_rev_at_epoch": 9231,
        "meta_bstar": 6.5784785e-05,
        "meta_mean_motion_dot": 1.03e-06,
        "meta_mean_motion_ddot": 0,
        "tle_line1": "1 59051U 24039A   25343.61005286  .00000103  00000+0  65785-4 0  9991",
        "tle_line2": "2 59051  98.6762 300.5681 0007217   7.4813 352.6472 14.22400554 92314"
      },
      "geometry": {
        "type": "Point",
        "coordinates": [
          118.5047085426458,
          -14.777879005048225
        ]
      }
    },
    {
      "type": "Feature",
      "properties": {
        "norad_id": 60133,
        "name": "GOES 19",
        "group": "weather",
        "lat": 0.0005625355100139158,
        "lon": -47.05177516729923,
        "alt_km": 35780.59754757945,
        "timestamp": "2025-12-09T20:37:08.926825+00:00",
        "meta_object_name": "GOES 19",
        "meta_object_id": "2024-119A",
        "meta_epoch": "2025-12-09T12:33:25.293024",
        "meta_mean_motion": 1.00271399,
        "meta_eccentricity": 0.00013479,
        "meta_inclination": 0.0188,
        "meta_ra_of_asc_node": 159.4399,
        "meta_arg_of_pericenter": 145.9184,
        "meta_mean_anomaly": 246.3286,
        "meta_ephemeris_type": 0,
        "meta_classification_type": "U",
        "meta_norad_cat_id": 60133,
        "meta_element_set_no": 999,
        "meta_rev_at_epoch": 506,
        "meta_bstar": 0,
        "meta_mean_motion_dot": -2.46e-06,
        "meta_mean_motion_ddot": 0,
        "tle_line1": "1 60133U 24119A   25343.52320941 -.00000246  00000+0  00000+0 0  9994",
        "tle_line2": "2 60133   0.0188 159.4399 0001347 145.9184 246.3286  1.00271399  5063"
      },
      "geometry": {
        "type": "Point",
        "coordinates": [
          -47.05177516729923,
          0.0005625355100139158
        ]
      }
    },
    {
      "type": "Feature",
      "properties": {
        "norad_id": 65815,
        "name": "FENGYUN 3H",
        "group": "weather",
        "lat": 77.07115069650837,
        "lon": 145.09782263658943,
        "alt_km": 817.9831235394549,
        "timestamp": "2025-12-09T20:37:08.926836+00:00",
        "meta_object_name": "FENGYUN 3H",
        "meta_object_id": "2025-219A",
        "meta_epoch": "2025-12-09T13:23:12.922080",
        "meta_mean_motion": 14.19903357,
        "meta_eccentricity": 6.059e-05,
        "meta_inclination": 98.658,
        "meta_ra_of_asc_node": 283.2174,
        "meta_arg_of_pericenter": 85.4652,
        "meta_mean_anomaly": 274.6594,
        "meta_ephemeris_type": 0,
        "meta_classification_type": "U",
        "meta_norad_cat_id": 65815,
        "meta_element_set_no": 999,
        "meta_rev_at_epoch": 1047,
        "meta_bstar": 0.00011244628,
        "meta_mean_motion_dot": 1.96e-06,
        "meta_mean_motion_ddot": 0,
        "tle_line1": "1 65815U 25219A   25343.55778845  .00000196  00000+0  11245-3 0  9991",
        "tle_line2": "2 65815  98.6580 283.2174 0000605  85.4652 274.6594 14.19903357 10472"
      },
      "geometry": {
        "type": "Point",
        "coordinates": [
          145.09782263658943,
          77.07115069650837
        ]
      }
    }
  ]
}